ORBCOMM FM114           
1 41179U 15081A   24138.86972860  .00002900  00000+0  68060-3 0  9994
2 41179  47.0031 351.8172 0001687 312.9693  47.1050 14.56649514446805
ORBCOMM FM119           
1 41180U 15081B   24138.70294670  .00002184  00000+0  52259-3 0  9992
2 41180  46.9997 261.7936 0000906 355.2845   4.8032 14.56591203448033
ORBCOMM FM105           
1 41181U 15081C   24138.94663600  .00000982  00000+0  32773-3 0  9995
2 41181  47.0010 228.2419 0002015 323.8546  36.2197 14.44393946443596
ORBCOMM FM110           
1 41182U 15081D   24138.84703019  .00002796  00000+0  65771-3 0  9993
2 41182  47.0023 351.3326 0001805 167.9962 192.0966 14.56642054446678
ORBCOMM FM118           
1 41183U 15081E   24138.89305766  .00002986  00000+0  70000-3 0  9998
2 41183  47.0044 351.4245 0001817 164.5937 195.5003 14.56631763446788
ORBCOMM FM112           
1 41184U 15081F   24138.61137808  .00003069  00000+0  71821-3 0  9994
2 41184  46.9978 261.4380 0001002 316.0517  44.0288 14.56646098447968
ORBCOMM FM113           
1 41185U 15081G   24138.45140663  .00002986  00000+0  70000-3 0  9995
2 41185  46.9997 262.4596 0000528 314.3982  45.6860 14.56638333447921
